ONEWEB-0520             
1 54138U 22138AB  23059.40205393 -.00000011  00000+0 -58590-4 0  9996
2 54138  87.9341 184.5567 0001078  87.4227 272.7030 13.19723116 17910
ONEWEB-0520             
1 54138U 22138AB  23059.40205393 -.00000011  00000+0 -58590-4 0  9996
2 54138  87.9341 184.5567 0001078  87.4227 272.7030 13.19723116 18786
ONEWEB-0520             
1 54138U 22138AB  23059.85695595  .00000055  00000+0  10500-3 0  9996
2 54138  87.9341 184.4670 0001055  87.5227 272.6026 13.19722517 17974
ONEWEB-0520             
1 54138U 22138AB  23060.84257642  .00000066  00000+0  13324-3 0  9993
2 54138  87.9342 184.2724 0001071  90.7439 269.3817 13.19722654 18101
ONEWEB-0520             
1 54138U 22138AB  23061.82819704 -.00000002  00000+0 -36025-4 0  9991
2 54138  87.9342 184.0778 0001058  92.9600 267.1654 13.19722654 18236
ONEWEB-0520             
1 54138U 22138AB  23062.35891425  .00000169  00000+0  39041-3 0  9992
2 54138  87.9335 183.9723 0001065  96.2400 263.8854 13.19723710 18306
ONEWEB-0520             
1 54138U 22138AB  23062.35891425  .00000169  00000+0  39041-3 0  9992
2 54138  87.9335 183.9723 0001065  96.2400 263.8854 13.19723710 19172
ONEWEB-0520             
1 54138U 22138AB  23062.88963277  .00000095  00000+0  20484-3 0  9994
2 54138  87.9330 183.8663 0001046  98.9717 261.1534 13.19723511 18374
